{
  "norad_id": 48985,
  "name": "ONEWEB-0267",
  "history": [
    {
      "epoch": "2026-03-28T19:29:15.261216Z",
      "apogee_km": 1199.2124867093553,
      "perigee_km": 1196.2963745798706,
      "latitude_deg": 2.3156896562370663e-05,
      "longitude_deg": 126.20605038494568,
      "height_km": 1200.948256208628,
      "semi_major_axis_km": 7575.891430644612,
      "eccentricity": 0.00019246,
      "inclination_deg": 87.9032,
      "raan_deg": 244.7467,
      "arg_perigee_deg": 101.8741,
      "mean_anomaly_deg": 258.2606,
      "mean_motion_rev_day": 13.1659484
    },
    {
      "epoch": "2026-03-29T04:36:25.978176Z",
      "apogee_km": 1199.2058452000729,
      "perigee_km": 1196.30579342884,
      "latitude_deg": 2.7134273333209546e-05,
      "longitude_deg": -11.038933900157259,
      "height_km": 1200.9432116137255,
      "semi_major_axis_km": 7575.892819314456,
      "eccentricity": 0.0001914,
      "inclination_deg": 87.9031,
      "raan_deg": 244.6709,
      "arg_perigee_deg": 101.6806,
      "mean_anomaly_deg": 258.454,
      "mean_motion_rev_day": 13.16594478
    },
    {
      "epoch": "2026-03-30T04:19:05.735136Z",
      "apogee_km": 1199.2077161522357,
      "perigee_km": 1196.303876443414,
      "latitude_deg": 1.172943123346393e-06,
      "longitude_deg": -7.875266186340788,
      "height_km": 1200.9442951210183,
      "semi_major_axis_km": 7575.892796297824,
      "eccentricity": 0.00019165,
      "inclination_deg": 87.9032,
      "raan_deg": 244.474,
      "arg_perigee_deg": 101.7097,
      "mean_anomaly_deg": 258.4249,
      "mean_motion_rev_day": 13.16594484
    },
    {
      "epoch": "2026-03-30T09:47:24.144576Z",
      "apogee_km": 1199.2119433796952,
      "perigee_km": 1196.3002246317874,
      "latitude_deg": 3.42840217149591e-05,
      "longitude_deg": -90.2221887527271,
      "height_km": 1200.942561712015,
      "semi_major_axis_km": 7575.893084005741,
      "eccentricity": 0.00019217,
      "inclination_deg": 87.9032,
      "raan_deg": 244.4285,
      "arg_perigee_deg": 101.597,
      "mean_anomaly_deg": 258.5377,
      "mean_motion_rev_day": 13.16594409
    },
    {
      "epoch": "2026-03-30T20:44:00.921984Z",
      "apogee_km": 1199.215167160135,
      "perigee_km": 1196.2946608272896,
      "latitude_deg": -1.8946891700575447e-05,
      "longitude_deg": 105.08423503627945,
      "height_km": 1200.9462023908575,
      "semi_major_axis_km": 7575.891913993712,
      "eccentricity": 0.00019275,
      "inclination_deg": 87.9032,
      "raan_deg": 244.3376,
      "arg_perigee_deg": 101.7543,
      "mean_anomaly_deg": 258.3804,
      "mean_motion_rev_day": 13.16594714
    },
    {
      "epoch": "2026-03-31T16:47:48.412896Z",
      "apogee_km": 1199.2245010052911,
      "perigee_km": 1196.286569880046,
      "latitude_deg": 3.983319821076745e-05,
      "longitude_deg": 163.1457935034296,
      "height_km": 1200.944550399414,
      "semi_major_axis_km": 7575.892535442668,
      "eccentricity": 0.0001939,
      "inclination_deg": 87.9033,
      "raan_deg": 244.171,
      "arg_perigee_deg": 101.5943,
      "mean_anomaly_deg": 258.5406,
      "mean_motion_rev_day": 13.16594552
    },
    {
      "epoch": "2026-04-01T16:30:28.097280Z",
      "apogee_km": 1199.2344354267752,
      "perigee_km": 1196.2722623003701,
      "latitude_deg": -8.271356485226076e-05,
      "longitude_deg": 166.30966157848638,
      "height_km": 1200.9307302053367,
      "semi_major_axis_km": 7575.890348863572,
      "eccentricity": 0.0001955,
      "inclination_deg": 87.9036,
      "raan_deg": 243.974,
      "arg_perigee_deg": 101.0398,
      "mean_anomaly_deg": 259.0952,
      "mean_motion_rev_day": 13.16595122
    },
    {
      "epoch": "2026-04-02T08:55:23.304864Z",
      "apogee_km": 1199.2282702169587,
      "perigee_km": 1196.27867302074,
      "latitude_deg": 3.9711353095265815e-05,
      "longitude_deg": -80.73051879026187,
      "height_km": 1200.939214257411,
      "semi_major_axis_km": 7575.890471618849,
      "eccentricity": 0.00019467,
      "inclination_deg": 87.9043,
      "raan_deg": 243.838,
      "arg_perigee_deg": 101.4184,
      "mean_anomaly_deg": 258.7166,
      "mean_motion_rev_day": 13.1659509
    },
    {
      "epoch": "2026-04-02T21:41:26.274048Z",
      "apogee_km": 1199.2308536934215,
      "perigee_km": 1196.2761048886869,
      "latitude_deg": 2.8470519719272522e-06,
      "longitude_deg": 87.12686639725626,
      "height_km": 1200.9402448288174,
      "semi_major_axis_km": 7575.890479291053,
      "eccentricity": 0.00019501,
      "inclination_deg": 87.9046,
      "raan_deg": 243.7321,
      "arg_perigee_deg": 101.4386,
      "mean_anomaly_deg": 258.6964,
      "mean_motion_rev_day": 13.16595088
    },
    {
      "epoch": "2026-04-03T15:55:47.612928Z",
      "apogee_km": 1199.2434305737752,
      "perigee_km": 1196.263075348259,
      "latitude_deg": -1.4383681310934367e-05,
      "longitude_deg": 172.63759396294296,
      "height_km": 1200.9333985481048,
      "semi_major_axis_km": 7575.890252961017,
      "eccentricity": 0.0001967,
      "inclination_deg": 87.9046,
      "raan_deg": 243.5808,
      "arg_perigee_deg": 101.0808,
      "mean_anomaly_deg": 259.0544,
      "mean_motion_rev_day": 13.16595147
    },
    {
      "epoch": "2026-04-03T21:24:06.024096Z",
      "apogee_km": 1199.2456169734724,
      "perigee_km": 1196.2604132719125,
      "latitude_deg": 4.47569844119659e-05,
      "longitude_deg": 90.29076484295874,
      "height_km": 1200.9318492242148,
      "semi_major_axis_km": 7575.890015122692,
      "eccentricity": 0.00019702,
      "inclination_deg": 87.9046,
      "raan_deg": 243.5354,
      "arg_perigee_deg": 101.0119,
      "mean_anomaly_deg": 259.1234,
      "mean_motion_rev_day": 13.16595209
    }
  ]
}